[ {"spaceTrack": {"CCSDS_OMM_VERS": "2.0", "COMMENT": "GENERATED VIA SPACE-TRACK.ORG API", "CREATION_DATE": "2020-08-23 17:26:13", "ORIGINATOR": "18 SPCS", "OBJECT_NAME": "STARLINK-1057", "OBJECT_ID": "2019-074BB", "CENTER_NAME": "EARTH", "REF_FRAME": "TEME", "TIME_SYSTEM": "UTC", "MEAN_ELEMENT_THEORY": "SGP4", "EPOCH": "2020-08-23 14:00:01.999872", "MEAN_MOTION": 15.05568364, "ECCENTRICITY": 7.02e-05, "INCLINATION": 52.9986, "RA_OF_ASC_NODE": 293.1855, "ARG_OF_PERICENTER": 96.0306, "MEAN_ANOMALY": 37.9297, "EPHEMERIS_TYPE": 0, "CLASSIFICATION_TYPE": "U", "NORAD_CAT_ID": 44762, "ELEMENT_SET_NO": 999, "REV_AT_EPOCH": 176, "BSTAR": 0.002798, "MEAN_MOTION_DOT": 0.0004071, "MEAN_MOTION_DDOT": 0, "SEMIMAJOR_AXIS": 6927.898, "PERIOD": 95.644, "APOAPSIS": 550.249, "PERIAPSIS": 549.277, "OBJECT_TYPE": "PAYLOAD", "RCS_SIZE": "LARGE", "COUNTRY_CODE": "US", "LAUNCH_DATE": "2019-11-11", "SITE": "AFETR", "DECAY_DATE": null, "DECAYED": 0, "FILE": 2807181, "GP_ID": 159962059, "TLE_LINE0": "0 STARLINK-1057", "TLE_LINE1": "1 44762U 19074BB  20236.58335648 +.00040710 +00000-0 +27980-2 0  9999", "TLE_LINE2": "2 44762 052.9986 293.1855 0000702 096.0306 037.9297 15.05568364001764"}, "version": "v1.0", "launch": "5eb87d39ffd86e000604b37d", "longitude": 117.94191536627248, "latitude": 31.166070374662485, "height_km": 551.1843702811793, "velocity_kms": 7.590553567121427, "id": "5eed7714096e59000698566f"}, {"spaceTrack": {"CCSDS_OMM_VERS": "2.0", "COMMENT": "GENERATED VIA SPACE-TRACK.ORG API", "CREATION_DATE": "2020-08-23 14:56:10", "ORIGINATOR": "18 SPCS", "OBJECT_NAME": "STARLINK-1051", "OBJECT_ID": "2019-074AV", "CENTER_NAME": "EARTH", "REF_FRAME": "TEME", "TIME_SYSTEM": "UTC", "MEAN_ELEMENT_THEORY": "SGP4", "EPOCH": "2020-08-23 14:00:01.999872", "MEAN_MOTION": 15.0557501, "ECCENTRICITY": 8.75e-05, "INCLINATION": 52.9974, "RA_OF_ASC_NODE": 273.1836, "ARG_OF_PERICENTER": 78.2197, "MEAN_ANOMALY": 93.8974, "EPHEMERIS_TYPE": 0, "CLASSIFICATION_TYPE": "U", "NORAD_CAT_ID": 44756, "ELEMENT_SET_NO": 999, "REV_AT_EPOCH": 4385, "BSTAR": 0.0025441, "MEAN_MOTION_DOT": 0.00036978, "MEAN_MOTION_DDOT": 0, "SEMIMAJOR_AXIS": 6927.878, "PERIOD": 95.644, "APOAPSIS": 550.349, "PERIAPSIS": 549.136, "OBJECT_TYPE": "PAYLOAD", "RCS_SIZE": "LARGE", "COUNTRY_CODE": "US", "LAUNCH_DATE": "2019-11-11", "SITE": "AFETR", "DECAY_DATE": null, "DECAYED": 0, "FILE": 2807080, "GP_ID": 159941226, "TLE_LINE0": "0 STARLINK-1051", "TLE_LINE1": "1 44756U 19074AV  20236.58335648  .00036978  00000-0  25441-2 0  9993", "TLE_LINE2": "2 44756  52.9974 273.1836 0000875  78.2197  93.8974 15.05575010 43857"}, "version": "v1.0", "launch": "5eb87d39ffd86e000604b37d", "longitude": 123.69583299552059, "latitude": 1.5991167454788748, "height_km": 550.4177624941522, "velocity_kms": 7.587930586792907, "id": "5eed7714096e590006985670"}, {"spaceTrack": {"CCSDS_OMM_VERS": "2.0", "COMMENT": "GENERATED VIA SPACE-TRACK.ORG API", "CREATION_DATE": "2020-08-23 17:26:13", "ORIGINATOR": "18 SPCS", "OBJECT_NAME": "STARLINK-1045", "OBJECT_ID": "2019-074AP", "CENTER_NAME": "EARTH", "REF_FRAME": "TEME", "TIME_SYSTEM": "UTC", "MEAN_ELEMENT_THEORY": "SGP4", "EPOCH": "2020-08-23 14:00:01.999872", "MEAN_MOTION": 15.05567256, "ECCENTRICITY": 8.35e-05, "INCLINATION": 52.9971, "RA_OF_ASC_NODE": 313.1868, "ARG_OF_PERICENTER": 102.1316, "MEAN_ANOMALY": 140.1127, "EPHEMERIS_TYPE": 0, "CLASSIFICATION_TYPE": "U", "NORAD_CAT_ID": 44750, "ELEMENT_SET_NO": 999, "REV_AT_EPOCH": 176, "BSTAR": 0.0013956, "MEAN_MOTION_DOT": 0.00020106, "MEAN_MOTION_DDOT": 0, "SEMIMAJOR_AXIS": 6927.901, "PERIOD": 95.645, "APOAPSIS": 550.345, "PERIAPSIS": 549.188, "OBJECT_TYPE": "PAYLOAD", "RCS_SIZE": "LARGE", "COUNTRY_CODE": "US", "LAUNCH_DATE": "2019-11-11", "SITE": "AFETR", "DECAY_DATE": null, "DECAYED": 0, "FILE": 2807181, "GP_ID": 159961645, "TLE_LINE0": "0 STARLINK-1045", "TLE_LINE1": "1 44750U 19074AP  20236.58335648 +.00020106 +00000-0 +13956-2 0  9991", "TLE_LINE2": "2 44750 052.9971 313.1868 0000835 102.1316 140.1127 15.05567256001767"}, "version": "v1.0", "launch": "5eb87d39ffd86e000604b37d", "longitude": -138.87283037981067, "latitude": -47.960875275520266, "height_km": 566.5972154968558, "velocity_kms": 7.577383568942631, "id": "5eed7714096e590006985671"}, {"spaceTrack": {"CCSDS_OMM_VERS": "2.0", "COMMENT": "GENERATED VIA SPACE-TRACK.ORG API", "CREATION_DATE": "2020-08-23 17:26:13", "ORIGINATOR": "18 SPCS", "OBJECT_NAME": "STARLINK-1046", "OBJECT_ID": "2019-074AQ", "CENTER_NAME": "EARTH", "REF_FRAME": "TEME", "TIME_SYSTEM": "UTC", "MEAN_ELEMENT_THEORY": "SGP4", "EPOCH": "2020-08-23 14:00:01.999872", "MEAN_MOTION": 15.05568675, "ECCENTRICITY": 0.0001062, "INCLINATION": 52.9984, "RA_OF_ASC_NODE": 313.1838, "ARG_OF_PERICENTER": 101.1265, "MEAN_ANOMALY": 177.0939, "EPHEMERIS_TYPE": 0, "CLASSIFICATION_TYPE": "U", "NORAD_CAT_ID": 44751, "ELEMENT_SET_NO": 999, "REV_AT_EPOCH": 176, "BSTAR": 0.0013408, "MEAN_MOTION_DOT": 0.00019304, "MEAN_MOTION_DDOT": 0, "SEMIMAJOR_AXIS": 6927.897, "PERIOD": 95.644, "APOAPSIS": 550.498, "PERIAPSIS": 549.026, "OBJECT_TYPE": "PAYLOAD", "RCS_SIZE": "LARGE", "COUNTRY_CODE": "US", "LAUNCH_DATE": "2019-11-11", "SITE": "AFETR", "DECAY_DATE": null, "DECAYED": 0, "FILE": 2807181, "GP_ID": 159961832, "TLE_LINE0": "0 STARLINK-1046", "TLE_LINE1": "1 44751U 19074AQ  20236.58335648 +.00019304 +00000-0 +13408-2 0  9992", "TLE_LINE2": "2 44751 052.9984 313.1838 0001062 101.1265 177.0939 15.05568675001760"}, "version": "v1.0", "launch": "5eb87d39ffd86e000604b37d", "longitude": -82.6749132073105, "latitude": -50.96411910293204, "height_km": 568.0572702753534, "velocity_kms": 7.576455983232103, "id": "5eed7714096e590006985672"}, {"spaceTrack": {"CCSDS_OMM_VERS": "2.0", "COMMENT": "GENERATED VIA SPACE-TRACK.ORG API", "CREATION_DATE": "2020-08-23 14:46:10", "ORIGINATOR": "18 SPCS", "OBJECT_NAME": "STARLINK-1060", "OBJECT_ID": "2019-074BE", "CENTER_NAME": "EARTH", "REF_FRAME": "TEME", "TIME_SYSTEM": "UTC", "MEAN_ELEMENT_THEORY": "SGP4", "EPOCH": "2020-08-23 14:00:01.999872", "MEAN_MOTION": 15.05567923, "ECCENTRICITY": 7.65e-05, "INCLINATION": 52.9991, "RA_OF_ASC_NODE": 293.1854, "ARG_OF_PERICENTER": 105.2331, "MEAN_ANOMALY": 316.7292, "EPHEMERIS_TYPE": 0, "CLASSIFICATION_TYPE": "U", "NORAD_CAT_ID": 44765, "ELEMENT_SET_NO": 999, "REV_AT_EPOCH": 4356, "BSTAR": 0.0026659, "MEAN_MOTION_DOT": 0.00038764, "MEAN_MOTION_DDOT": 0, "SEMIMAJOR_AXIS": 6927.899, "PERIOD": 95.644, "APOAPSIS": 550.294, "PERIAPSIS": 549.234, "OBJECT_TYPE": "PAYLOAD", "RCS_SIZE": "LARGE", "COUNTRY_CODE": "US", "LAUNCH_DATE": "2019-11-11", "SITE": "AFETR", "DECAY_DATE": null, "DECAYED": 0, "FILE": 2807076, "GP_ID": 159940371, "TLE_LINE0": "0 STARLINK-1060", "TLE_LINE1": "1 44765U 19074BE  20236.58335648  .00038764  00000-0  26659-2 0  9990", "TLE_LINE2": "2 44765  52.9991 293.1854 0000765 105.2331 316.7292 15.05567923 43569"}, "version": "v1.0", "launch": "5eb87d39ffd86e000604b37d", "longitude": 20.63484944643243, "latitude": 47.79810230048684, "height_km": 554.5773443700937, "velocity_kms": 7.590482473462244, "id": "5eed7714096e590006985673"}, {"spaceTrack": {"CCSDS_OMM_VERS": "2.0", "COMMENT": "GENERATED VIA SPACE-TRACK.ORG API", "CREATION_DATE": "2020-08-23 22:36:09", "ORIGINATOR": "18 SPCS", "OBJECT_NAME": "STARLINK-1047", "OBJECT_ID": "2019-074AR", "CENTER_NAME": "EARTH", "REF_FRAME": "TEME", "TIME_SYSTEM": "UTC", "MEAN_ELEMENT_THEORY": "SGP4", "EPOCH": "2020-08-23 13:10:09.642144", "MEAN_MOTION": 15.05590758, "ECCENTRICITY": 0.0001156, "INCLINATION": 52.9994, "RA_OF_ASC_NODE": 293.3382, "ARG_OF_PERICENTER": 113.5152, "MEAN_ANOMALY": 246.5957, "EPHEMERIS_TYPE": 0, "CLASSIFICATION_TYPE": "U", "NORAD_CAT_ID": 44752, "ELEMENT_SET_NO": 999, "REV_AT_EPOCH": 4356, "BSTAR": 4.3216e-05, "MEAN_MOTION_DOT": 3.51e-06, "MEAN_MOTION_DDOT": 0, "SEMIMAJOR_AXIS": 6927.829, "PERIOD": 95.643, "APOAPSIS": 550.495, "PERIAPSIS": 548.894, "OBJECT_TYPE": "PAYLOAD", "RCS_SIZE": "LARGE", "COUNTRY_CODE": "US", "LAUNCH_DATE": "2019-11-11", "SITE": "AFETR", "DECAY_DATE": null, "DECAYED": 0, "FILE": 2807282, "GP_ID": 159986113, "TLE_LINE0": "0 STARLINK-1047", "TLE_LINE1": "1 44752U 19074AR  20236.54872271  .00000351  00000-0  43216-4 0  9991", "TLE_LINE2": "2 44752  52.9994 293.3382 0001156 113.5152 246.5957 15.05590758 43564"}, "version": "v1.0", "launch": "5eb87d39ffd86e000604b37d", "longitude": 153.3250657460526, "latitude": -11.069413423003594, "height_km": 552.4988108798689, "velocity_kms": 7.586139717173762, "id": "5eed7714096e590006985674"}, {"spaceTrack": {"CCSDS_OMM_VERS": "2.0", "COMMENT": "GENERATED VIA SPACE-TRACK.ORG API", "CREATION_DATE": "2020-08-23 17:26:13", "ORIGINATOR": "18 SPCS", "OBJECT_NAME": "STARLINK-1050", "OBJECT_ID": "2019-074AU", "CENTER_NAME": "EARTH", "REF_FRAME": "TEME", "TIME_SYSTEM": "UTC", "MEAN_ELEMENT_THEORY": "SGP4", "EPOCH": "2020-08-23 14:00:01.999872", "MEAN_MOTION": 15.05580361, "ECCENTRICITY": 8.64e-05, "INCLINATION": 52.9996, "RA_OF_ASC_NODE": 313.1768, "ARG_OF_PERICENTER": 116.2501, "MEAN_ANOMALY": 108.0806, "EPHEMERIS_TYPE": 0, "CLASSIFICATION_TYPE": "U", "NORAD_CAT_ID": 44755, "ELEMENT_SET_NO": 999, "REV_AT_EPOCH": 176, "BSTAR": 0.0013966, "MEAN_MOTION_DOT": 0.00020128, "MEAN_MOTION_DDOT": 0, "SEMIMAJOR_AXIS": 6927.861, "PERIOD": 95.644, "APOAPSIS": 550.325, "PERIAPSIS": 549.128, "OBJECT_TYPE": "PAYLOAD", "RCS_SIZE": "LARGE", "COUNTRY_CODE": "US", "LAUNCH_DATE": "2019-11-11", "SITE": "AFETR", "DECAY_DATE": null, "DECAYED": 0, "FILE": 2807181, "GP_ID": 159963006, "TLE_LINE0": "0 STARLINK-1050", "TLE_LINE1": "1 44755U 19074AU  20236.58335648 +.00020128 +00000-0 +13966-2 0  9991", "TLE_LINE2": "2 44755 052.9996 313.1768 0000864 116.2501 108.0806 15.05580361001761"}, "version": "v1.0", "launch": "5eb87d39ffd86e000604b37d", "longitude": -159.2692704265427, "latitude": -38.00148987383348, "height_km": 562.225529235845, "velocity_kms": 7.579909842589417, "id": "5eed7714096e590006985675"}]